NAVSTAR 48 (USA 151)    
1 26407U 00040A   26141.60962237 -.00000008  00000+0  00000+0 0  9999
2 26407  54.8554 216.2181 0121367 302.3595 231.6063  2.00557422189411
NAVSTAR 51 (USA 166)    
1 27663U 03005A   26141.68169729 -.00000008  00000+0  00000+0 0  9991
2 27663  54.8864 216.0220 0147956  53.0180 308.6282  2.00561945170787
NAVSTAR 54 (USA 177)    
1 28190U 04009A   26141.45503266 -.00000043  00000+0  00000+0 0  9994
2 28190  54.8528 276.7668 0114919 171.8788 179.8641  2.00555510162403
NAVSTAR 56 (USA 180)    
1 28474U 04045A   26140.51751951 -.00000073  00000+0  00000+0 0  9994
2 28474  55.1525 326.0102 0169837 315.6873 144.1699  2.00554536157873
NAVSTAR 57 (USA 183)    
1 28874U 05038A   26141.39534059 -.00000041  00000+0  00000+0 0  9991
2 28874  54.9008 274.2583 0127705 295.9882  40.2004  2.00567444151293
NAVSTAR 58 (USA 190)    
1 29486U 06042A   26141.15482969  .00000057  00000+0  00000+0 0  9999
2 29486  54.7065 152.4120 0106205  53.8364   6.7266  2.00571322143856
NAVSTAR 59 (USA 192)    
1 29601U 06052A   26141.49435176 -.00000005  00000+0  00000+0 0  9998
2 29601  54.9382 215.0643 0085659  90.5964 270.4501  2.00556660142879
NAVSTAR 60 (USA 196)    
1 32260U 07047A   26140.30335457 -.00000013  00000+0  00000+0 0  9997
2 32260  54.0757  81.2145 0165862  86.8522 275.0168  2.00556531136256
NAVSTAR 61 (USA 199)    
1 32384U 07062A   26140.59294359 -.00000034  00000+0  00000+0 0  9990
2 32384  55.0547 275.2615 0035203 163.8276 172.3061  2.00558310134958
NAVSTAR 62 (USA 201)    
1 32711U 08012A   26141.21416678  .00000057  00000+0  00000+0 0  9994
2 32711  54.4930 151.0022 0210596 247.4866 110.2911  2.00571665133219
NAVSTAR 64 (USA 206)    
1 35752U 09043A   26141.71321300 -.00000092  00000+0  00000+0 0  9999
2 35752  56.1943  28.4915 0053464  82.1406 289.8952  2.00555610122837
NAVSTAR 65 (USA 213)    
1 36585U 10022A   26140.60022088  .00000011  00000+0  00000+0 0  9991
2 36585  54.2728 209.6735 0126364  66.1075 340.0810  2.00561000117049
NAVSTAR 67 (USA 239)    
1 38833U 12053A   26141.39363671  .00000058  00000+0  00000+0 0  9999
2 38833  53.5804 144.6967 0178959  65.4016 296.4636  2.00567000 98902
NAVSTAR 68 (USA 242)    
1 39166U 13023A   26141.25988131 -.00000038  00000+0  00000+0 0  9995
2 39166  54.5259 270.0702 0141771  50.8876 310.3547  2.00563568 95349
NAVSTAR 69 (USA 248)    
1 39533U 14008A   26141.26115735  .00000056  00000+0  00000+0 0  9999
2 39533  53.6498 150.4178 0084132 230.7804 128.4898  2.00558027 89149
NAVSTAR 70 (USA 251)    
1 39741U 14026A   26141.53660550 -.00000077  00000+0  00000+0 0  9994
2 39741  56.5108 332.5547 0038483 326.8869  32.8833  2.00562896 88009
NAVSTAR 71 (USA 256)    
1 40105U 14045A   26141.12932804  .00000006  00000+0  00000+0 0  9991
2 40105  55.3364  89.5425 0032320 118.5518 241.7458  2.00556537 85535
NAVSTAR 72 (USA 258)    
1 40294U 14068A   26141.49998365 -.00000087  00000+0  00000+0 0  9999
2 40294  56.9699  31.9829 0066297  69.6403 291.1087  2.00574485 84673
NAVSTAR 73 (USA 260)    
1 40534U 15013A   26141.13788255  .00000007  00000+0  00000+0 0  9994
2 40534  53.1702 205.2964 0109055  40.0295 320.8426  2.00552911 81283
NAVSTAR 74 (USA 262)    
1 40730U 15033A   26140.79832611 -.00000034  00000+0  00000+0 0  9992
2 40730  54.0045 268.2155 0114991  30.0994 330.5482  2.00557697 79443
NAVSTAR 75 (USA 265)    
1 41019U 15062A   26140.85546038 -.00000083  00000+0  00000+0 0  9991
2 41019  56.9416  31.8641 0111353 231.3141 127.7233  2.00566822 77280
NAVSTAR 76 (USA 266)    
1 41328U 16007A   26140.94462129  .00000008  00000+0  00000+0 0  9998
2 41328  55.5081  90.5392 0096119 247.3053 111.6486  2.00552990 75294
NAVSTAR 77 (USA 289)    
1 43873U 18109A   26140.28832900  .00000011  00000+0  00000+0 0  9999
2 43873  55.6661  93.2866 0037942 198.6197 301.0092  2.00560163 54519
NAVSTAR 78 (USA 293)    
1 44506U 19056A   26140.82786065 -.00000077  00000+0  00000+0 0  9998
2 44506  55.6503 332.2294 0060640 197.3789 234.7170  2.00569187 49522
NAVSTAR 79 (USA 304)    
1 45854U 20041A   26141.06126522 -.00000086  00000+0  00000+0 0  9994
2 45854  56.6530  29.9956 0062891 204.8537 335.2837  2.00559093 43492
NAVSTAR 80 (USA 309)    
1 46826U 20078A   26141.58273001 -.00000004  00000+0  00000+0 0  9996
2 46826  53.9830 211.8576 0072352 206.4894 325.6436  2.00564810 40973
NAVSTAR 81 (USA 319)    
1 48859U 21054A   26137.34480044 -.00000068  00000+0  00000+0 0  9995
2 48859  55.1878 333.6992 0024563 229.1356 308.8651  2.00570737 36138
NAVSTAR 82 (USA 343)    
1 55268U 23009A   26141.53656713  .00000061  00000+0  00000+0 0  9995
2 55268  55.1202 149.5640 0007718 317.2422  45.4565  2.00573207 24715
NAVSTAR 83 (USA 440)    
1 62339U 24242A   26141.67064693 -.00000083  00000+0  00000+0 0  9992
2 62339  54.8604 335.2554 0017334   3.6569 178.3722  2.00570900 10729
NAVSTAR 84 (USA 545)    
1 64202U 25116A   26141.41470082 -.00000089  00000+0  00000+0 0  9995
2 64202  55.2181  32.2075 0008502 336.1010 203.4335  2.00577591  7335
NAVSTAR 85 (USA 581)    
1 67588U 26017A   26140.77647786  .00000005  00000+0  00000+0 0  9998
2 67588  55.0717  89.8549 0022743 256.1685 103.5495  2.00571620431069
